COSMOS 2419 (714)       
1 28915U 05050A   16292.10682528  .00000009  00000-0  00000+0 0  9995
2 28915  65.3807  74.0150 0014487 358.9372 121.4486  2.13105386 84179
COSMOS 2425 (716)       
1 29670U 06062A   16291.48911978 -.00000003  00000-0  10000-3 0  9992
2 29670  65.5777 313.0418 0020630 337.8941  84.3612  2.13105063 76366
COSMOS 2426 (717)       
1 29671U 06062B   16292.21995696 -.00000008  00000-0  10000-3 0  9999
2 29671  65.5942 313.1024 0018220 173.5056 309.4469  2.13103088 76387
COSMOS 2424 (715)       
1 29672U 06062C   16292.03578608 -.00000007  00000-0  10000-3 0  9999
2 29672  65.5800 313.0339 0017514 173.1183 344.5879  2.13102397 76377
COSMOS 2433 (720)       
1 32275U 07052A   16291.59639481  .00000009  00000-0  10000-3 0  9990
2 32275  65.3956  73.8065 0001551 197.6137 139.0551  2.13104931 69878
COSMOS 2432 (719)       
1 32276U 07052B   16291.74800192  .00000009  00000-0  10000-3 0  9997
2 32276  65.4066  73.8690 0009763 345.2269  61.2875  2.13104186 69884
COSMOS 2434 (721)       
1 32393U 07065A   16291.47639067 -.00000004  00000-0  00000+0 0  9993
2 32393  65.1958 312.3080 0003198 157.1775 338.5777  2.13103009 68583
COSMOS 2436 (723)       
1 32395U 07065C   16292.28808590 -.00000009  00000-0  10000-3 0  9994
2 32395  65.2079 312.3239 0015949 344.5758 145.9070  2.13102998 68533
COSMOS 2443 (725)       
1 33379U 08046B   16292.39336846  .00000008  00000-0  10000-3 0  9997
2 33379  65.3252  73.1844 0017304 180.2035 311.3753  2.13101117 62762
COSMOS 2456 (730)       
1 36111U 09070A   16292.39680639  .00000029  00000-0  00000+0 0  9992
2 36111  64.1793 191.8466 0004558 314.0278 337.9486  2.13103067 53265
COSMOS 2457 (733)       
1 36112U 09070B   16291.63700022  .00000034  00000-0  00000+0 0  9994
2 36112  64.1619 191.7972 0006460 169.2731  29.4920  2.13101795 53253
COSMOS 2458 (734)       
1 36113U 09070C   16291.48547001  .00000034  00000-0  10000-3 0  9999
2 36113  64.1670 191.8088 0001308   0.3562 129.7963  2.13101933 53258
COSMOS 2459 (731)       
1 36400U 10007A   16292.11707782  .00000008  00000-0  10000-3 0  9996
2 36400  65.3042  72.9243 0026439 356.9572 243.4382  2.13102278 51618
COSMOS 2461 (735)       
1 36401U 10007B   16292.43991486  .00000008  00000-0  10000-3 0  9998
2 36401  65.2976  72.8931 0008056  83.1127 315.5547  2.13102336 51627
COSMOS 2460 (732)       
1 36402U 10007C   16291.71145858  .00000007  00000-0  10000-3 0  9992
2 36402  65.2865  72.8930 0002256 117.2135 124.2544  2.13101954 51603
COSMOS 2465 (737)       
1 37138U 10041B   16291.74456758 -.00000007  00000-0  00000+0 0  9990
2 37138  64.7946 312.4091 0036522 175.6326 209.0474  2.13103511 47686
COSMOS 2464 (736)       
1 37139U 10041C   16291.57819536 -.00000006  00000-0  00000+0 0  9998
2 37139  64.8020 312.4123 0020851   6.6568  74.9006  2.13102717 47683
COSMOS 2471 (701K)      
1 37372U 11009A   16291.83126122  .00000007  00000-0  00000+0 0  9993
2 37372  65.2851  72.8385 0007299 221.8884 244.4843  2.13102852 43880
COSMOS 2474 (742)       
1 37829U 11055A   16291.83954343  .00000033  00000-0  00000-0 0  9995
2 37829  64.5037 192.3293 0008338 251.0679 194.2544  2.13102022 39258
COSMOS 2476 (744)       
1 37867U 11064A   16291.78240417  .00000033  00000-0  00000+0 0  9990
2 37867  64.4827 192.4092 0017366 245.4685 201.8907  2.13102057 38603
COSMOS 2477 (745)       
1 37868U 11064B   16292.45866346  .00000029  00000-0  00000+0 0  9996
2 37868  64.4914 192.4290 0015368 247.0230 178.3993  2.13102013 38576
COSMOS 2475 (743)       
1 37869U 11064C   16292.33785359  .00000030  00000-0  00000+0 0  9990
2 37869  64.4976 192.4206 0020523 274.0814  14.9009  2.13102337 38571
COSMOS 2485 (747)       
1 39155U 13019A   16292.14808564  .00000031  00000-0  00000+0 0  9996
2 39155  64.6529 192.3741 0017692 240.2201 172.7872  2.13102174 27082
COSMOS 2492 (754)       
1 39620U 14012A   16291.60158410  .00000012  00000-0  11869+2 0  9991
2 39620  65.1760  72.8684 0013144 337.9117  49.4017  2.13103671 20029
COSMOS 2500 (755)       
1 40001U 14032A   16291.79105973  .00000007  00000-0  00000+0 0  9991
2 40001  65.1165  72.8765 0006597 185.3734 210.8380  2.13102948 18241
COSMOS 2501 (702K)      
1 40315U 14075A   16292.09638720 -.00000011  00000-0  00000+0 0  9997
2 40315  64.5669 313.8135 0019585 234.3178 196.8461  2.13101729 14658
COSMOS 2514 (751)       
1 41330U 16008A   16292.43737578  .00000007  00000-0  00000+0 0  9996
2 41330  64.9175  73.0597 0009248 201.1091 150.2877  2.13103525  5415
COSMOS 2516 (753)       
1 41554U 16032A   16291.66172936 -.00000007  00000-0  00000+0 0  9997
2 41554  64.7478 313.5330 0014158 226.5621 143.8124  2.13101681  3018
